{
    "links": {
        "self": "http://www.neowsapp.com/rest/v1/neo/3455471?api_key=iIulBulltgU6a56xZRHN4H3l9WmuAYTsLGpBGhQ2"
    },
    "id": "3455471",
    "neo_reference_id": "3455471",
    "name": "(2009 FQ32)",
    "designation": "2009 FQ32",
    "nasa_jpl_url": "http://ssd.jpl.nasa.gov/sbdb.cgi?sstr=3455471",
    "absolute_magnitude_h": 26.8,
    "estimated_diameter": {
        "kilometers": {
            "estimated_diameter_min": 0.0116025908,
            "estimated_diameter_max": 0.0259441818
        },
        "meters": {
            "estimated_diameter_min": 11.6025908209,
            "estimated_diameter_max": 25.9441817907
        },
        "miles": {
            "estimated_diameter_min": 0.0072095135,
            "estimated_diameter_max": 0.0161209622
        },
        "feet": {
            "estimated_diameter_min": 38.066244069,
            "estimated_diameter_max": 85.1187093863
        }
    },
    "is_potentially_hazardous_asteroid": false,
    "close_approach_data": [
        {
            "close_approach_date": "2005-03-04",
            "close_approach_date_full": "2005-Mar-04 00:35",
            "epoch_date_close_approach": 1109896500000,
            "relative_velocity": {
                "kilometers_per_second": "12.3174108786",
                "kilometers_per_hour": "44342.6791628729",
                "miles_per_hour": "27552.8163942862"
            },
            "miss_distance": {
                "astronomical": "0.2873397698",
                "lunar": "111.7751704522",
                "kilometers": "42985417.528370326",
                "miles": "26709899.8976134588"
            },
            "orbiting_body": "Earth"
        },
        {
            "close_approach_date": "2009-03-31",
            "close_approach_date_full": "2009-Mar-31 18:39",
            "epoch_date_close_approach": 1238524740000,
            "relative_velocity": {
                "kilometers_per_second": "4.6638122913",
                "kilometers_per_hour": "16789.7242488488",
                "miles_per_hour": "10432.4817145139"
            },
            "miss_distance": {
                "astronomical": "0.0085248552",
                "lunar": "3.3161686728",
                "kilometers": "1275300.179978424",
                "miles": "792434.7861492912"
            },
            "orbiting_body": "Earth"
        },
        {
            "close_approach_date": "2009-03-31",
            "close_approach_date_full": "2009-Mar-31 23:33",
            "epoch_date_close_approach": 1238542380000,
            "relative_velocity": {
                "kilometers_per_second": "5.3390508015",
                "kilometers_per_hour": "19220.5828853025",
                "miles_per_hour": "11942.9227378148"
            },
            "miss_distance": {
                "astronomical": "0.0084983956",
                "lunar": "3.3058758884",
                "kilometers": "1271341.880177372",
                "miles": "789975.2127048536"
            },
            "orbiting_body": "Moon"
        },
        {
            "close_approach_date": "2013-06-27",
            "close_approach_date_full": "2013-Jun-27 00:22",
            "epoch_date_close_approach": 1372292520000,
            "relative_velocity": {
                "kilometers_per_second": "13.8921290605",
                "kilometers_per_hour": "50011.6646176589",
                "miles_per_hour": "31075.3034953448"
            },
            "miss_distance": {
                "astronomical": "0.3678268837",
                "lunar": "143.0846577593",
                "kilometers": "55026118.330257719",
                "miles": "34191644.4428017622"
            },
            "orbiting_body": "Earth"
        }
    ],
    "orbital_data": {
        "orbit_id": "6",
        "orbit_determination_date": "2017-04-06 09:00:50",
        "first_observation_date": "2009-03-29",
        "last_observation_date": "2009-03-30",
        "data_arc_in_days": 1,
        "observations_used": 8,
        "orbit_uncertainty": "8",
        "minimum_orbit_intersection": ".0073477",
        "jupiter_tisserand_invariant": "5.194",
        "epoch_osculation": "2454920.5",
        "eccentricity": ".1886686457629307",
        "semi_major_axis": "1.225257104545254",
        "inclination": "6.1454254221",
        "ascending_node_longitude": "7.766596766046362",
        "orbital_period": "495.3809150031493",
        "perihelion_distance": ".9940895059192915",
        "perihelion_argument": "203.4699461459525",
        "aphelion_distance": "1.456424703171217",
        "perihelion_time": "2454941.211897164204",
        "mean_anomaly": "344.9483846605878",
        "mean_motion": ".7267135028762894",
        "equinox": "J2000",
        "orbit_class": {
            "orbit_class_type": "APO",
            "orbit_class_description": "Near-Earth asteroid orbits which cross the Earth’s orbit similar to that of 1862 Apollo",
            "orbit_class_range": "a (semi-major axis) > 1.0 AU; q (perihelion) < 1.017 AU"
        }
    },
    "is_sentry_object": false
}